CTC1_L_00351016-03
1 18817U 23573MY  26037.47805556  .00000000  00000+0  00000-0 0  9992
2 18817  55.0000 180.0000 0000000   0.0000   0.0000 13.72670174    15
CTC1_L_00351016-04
1 18818U 25643BE  26037.47805556  .00000000  00000+0  00000-0 0  9993
2 18818  55.0000 180.0000 0000000   0.0000  90.0000 13.72670174    15
CTC1_L_00351017-01
1 18819U 24158UX  26037.47805556  .00000000  00000+0  00000-0 0  9994
2 18819  55.0000 192.0000 0000000   0.0000 192.0000 13.72670174    12
CTC1_L_00351017-02
1 18820U 26914QY  26037.47805556  .00000000  00000+0  00000-0 0  9998
2 18820  55.0000 192.0000 0000000   0.0000 282.0000 13.72670174    14
CTC1_L_00351017-03
1 18821U 23638CE  26037.47805556  .00000000  00000+0  00000-0 0  9999
2 18821  55.0000 192.0000 0000000   0.0000  12.0000 13.72670174    16
CTC1_L_00351017-04
1 18822U 23965DU  26037.47805556  .00000000  00000+0  00000-0 0  9993
2 18822  55.0000 192.0000 0000000   0.0000 102.0000 13.72670174    17
CTC1_L_00351018-01
1 18823U 23160YU  26037.47805556  .00000000  00000+0  00000-0 0  9991
2 18823  55.0000 204.0000 0000000   0.0000 204.0000 13.72670174    15
CTC1_L_00351018-02
1 18824U 25621TB  26037.47805556  .00000000  00000+0  00000-0 0  9996
2 18824  55.0000 204.0000 0000000   0.0000 294.0000 13.72670174    15
CTC1_L_00351018-03
1 18825U 24267AP  26037.47805556  .00000000  00000+0  00000-0 0  9992
2 18825  55.0000 204.0000 0000000   0.0000  24.0000 13.72670174    17
CTC1_L_00351018-04
1 18826U 23517AE  26037.47805556  .00000000  00000+0  00000-0 0  9990
2 18826  55.0000 204.0000 0000000   0.0000 114.0000 13.72670174    18
CTC1_L_00351019-01
1 18827U 22961CV  26037.47805556  .00000000  00000+0  00000-0 0  9993
2 18827  55.0000 216.0000 0000000   0.0000 216.0000 13.72670174    15
CTC1_L_00351019-02
1 18828U 23644VQ  26037.47805556  .00000000  00000+0  00000-0 0  9993
2 18828  55.0000 216.0000 0000000   0.0000 306.0000 13.72670174    16
CTC1_L_00351019-03
1 18829U 25058MD  26037.47805556  .00000000  00000+0  00000-0 0  9995
2 18829  55.0000 216.0000 0000000   0.0000  36.0000 13.72670174    17
CTC1_L_00351019-04
1 18830U 23998CN  26037.47805556  .00000000  00000+0  00000-0 0  9998
2 18830  55.0000 216.0000 0000000   0.0000 126.0000 13.72670174    19
CTC1_L_00351020-01
1 18831U 22531UO  26037.47805556  .00000000  00000+0  00000-0 0  9991
2 18831  55.0000 228.0000 0000000   0.0000 228.0000 13.72670174    16
CTC1_L_00351020-02
1 18832U 24852PW  26037.47805556  .00000000  00000+0  00000-0 0  9990
2 18832  55.0000 228.0000 0000000   0.0000 318.0000 13.72670174    17
CTC1_L_00351020-03
1 18833U 24618GL  26037.47805556  .00000000  00000+0  00000-0 0  9991
2 18833  55.0000 228.0000 0000000   0.0000  48.0000 13.72670174    18
CTC1_L_00351020-04
1 18834U 26040HX  26037.47805556  .00000000  00000+0  00000-0 0  9993
2 18834  55.0000 228.0000 0000000   0.0000 138.0000 13.72670174    19
CTC1_L_00351021-01
1 18835U 26651TY  26037.47805556  .00000000  00000+0  00000-0 0  9992
2 18835  55.0000 240.0000 0000000   0.0000 240.0000 13.72670174    18
CTC1_L_00351021-02
1 18836U 23503PI  26037.47805556  .00000000  00000+0  00000-0 0  9996
2 18836  55.0000 240.0000 0000000   0.0000 330.0000 13.72670174    19
CTC1_L_00351021-03
1 18837U 22778ZQ  26037.47805556  .00000000  00000+0  00000-0 0  9990
2 18837  55.0000 240.0000 0000000   0.0000  60.0000 13.72670174    10
CTC1_L_00351021-04
1 18838U 25925OC  26037.47805556  .00000000  00000+0  00000-0 0  9998
2 18838  55.0000 240.0000 0000000   0.0000 150.0000 13.72670174    11
CTC1_L_00351022-01
1 18839U 23526ZB  26037.47805556  .00000000  00000+0  00000-0 0  9994
2 18839  55.0000 252.0000 0000000   0.0000 252.0000 13.72670174    18
CTC1_L_00351022-02
1 18840U 22750TK  26037.47805556  .00000000  00000+0  00000-0 0  9994
2 18840  55.0000 252.0000 0000000   0.0000 342.0000 13.72670174    10
CTC1_L_00351022-03
1 18841U 23113ZB  26037.47805556  .00000000  00000+0  00000-0 0  9999
2 18841  55.0000 252.0000 0000000   0.0000  72.0000 13.72670174    11
CTC1_L_00351022-04
1 18842U 24753JO  26037.47805556  .00000000  00000+0  00000-0 0  9991
2 18842  55.0000 252.0000 0000000   0.0000 162.0000 13.72670174    12
CTC1_L_00351023-01
1 18843U 23186KP  26037.47805556  .00000000  00000+0  00000-0 0  9991
2 18843  55.0000 264.0000 0000000   0.0000 264.0000 13.72670174    19
CTC1_L_00351023-02
1 18844U 23839DH  26037.47805556  .00000000  00000+0  00000-0 0  9997
2 18844  55.0000 264.0000 0000000   0.0000 354.0000 13.72670174    10
CTC1_L_00351023-03
1 18845U 25723TV  26037.47805556  .00000000  00000+0  00000-0 0  9992
2 18845  55.0000 264.0000 0000000   0.0000  84.0000 13.72670174    11
CTC1_L_00351023-04
1 18846U 24178BJ  26037.47805556  .00000000  00000+0  00000-0 0  9996
2 18846  55.0000 264.0000 0000000   0.0000 174.0000 13.72670174    12
CTC1_L_00351024-01
1 18847U 26435NX  26037.47805556  .00000000  00000+0  00000-0 0  9995
2 18847  55.0000 276.0000 0000000   0.0000 276.0000 13.72670174    19
CTC1_L_00351024-02
1 18848U 23965EP  26037.47805556  .00000000  00000+0  00000-0 0  9991
2 18848  55.0000 276.0000 0000000   0.0000   6.0000 13.72670174    11
CTC1_L_00351024-03
1 18849U 26044QD  26037.47805556  .00000000  00000+0  00000-0 0  9993
2 18849  55.0000 276.0000 0000000   0.0000  96.0000 13.72670174    11
CTC1_L_00351024-04
1 18850U 22067CD  26037.47805556  .00000000  00000+0  00000-0 0  9996
2 18850  55.0000 276.0000 0000000   0.0000 186.0000 13.72670174    13
CTC1_L_00351025-01
1 18851U 23516PR  26037.47805556  .00000000  00000+0  00000-0 0  9997
2 18851  55.0000 288.0000 0000000   0.0000 288.0000 13.72670174    10
CTC1_L_00351025-02
1 18852U 26580VH  26037.47805556  .00000000  00000+0  00000-0 0  9992
2 18852  55.0000 288.0000 0000000   0.0000  18.0000 13.72670174    12
CTC1_L_00351025-03
1 18853U 26350OA  26037.47805556  .00000000  00000+0  00000-0 0  9998
2 18853  55.0000 288.0000 0000000   0.0000 108.0000 13.72670174    13
CTC1_L_00351025-04
1 18854U 24449HE  26037.47805556  .00000000  00000+0  00000-0 0  9996
2 18854  55.0000 288.0000 0000000   0.0000 198.0000 13.72670174    13
CTC1_L_00351026-01
1 18855U 22042BR  26037.47805556  .00000000  00000+0  00000-0 0  9994
2 18855  55.0000 300.0000 0000000   0.0000 300.0000 13.72670174    14
CTC1_L_00351026-02
1 18856U 26229GG  26037.47805556  .00000000  00000+0  00000-0 0  9996
2 18856  55.0000 300.0000 0000000   0.0000  30.0000 13.72670174    15
CTC1_L_00351026-03
1 18857U 24656NK  26037.47805556  .00000000  00000+0  00000-0 0  9999
2 18857  55.0000 300.0000 0000000   0.0000 120.0000 13.72670174    16
CTC1_L_00351026-04
1 18858U 25024WF  26037.47805556  .00000000  00000+0  00000-0 0  9990
2 18858  55.0000 300.0000 0000000   0.0000 210.0000 13.72670174    17
CTC1_L_00351027-01
1 18859U 25375BZ  26037.47805556  .00000000  00000+0  00000-0 0  9990
2 18859  55.0000 312.0000 0000000   0.0000 312.0000 13.72670174    14
CTC1_L_00351027-02
1 18860U 24657BZ  26037.47805556  .00000000  00000+0  00000-0 0  9994
2 18860  55.0000 312.0000 0000000   0.0000  42.0000 13.72670174    16
CTC1_L_00351027-03
1 18861U 25356DO  26037.47805556  .00000000  00000+0  00000-0 0  9992
2 18861  55.0000 312.0000 0000000   0.0000 132.0000 13.72670174    17
CTC1_L_00351027-04
1 18862U 26084SR  26037.47805556  .00000000  00000+0  00000-0 0  9992
2 18862  55.0000 312.0000 0000000   0.0000 222.0000 13.72670174    18
CTC1_L_00351028-01
1 18863U 25362KI  26037.47805556  .00000000  00000+0  00000-0 0  9991
2 18863  55.0000 324.0000 0000000   0.0000 324.0000 13.72670174    15
CTC1_L_00351028-02
1 18864U 25106HW  26037.47805556  .00000000  00000+0  00000-0 0  9998
2 18864  55.0000 324.0000 0000000   0.0000  54.0000 13.72670174    16
CTC1_L_00351028-03
1 18865U 22435RF  26037.47805556  .00000000  00000+0  00000-0 0  9991
2 18865  55.0000 324.0000 0000000   0.0000 144.0000 13.72670174    17
CTC1_L_00351028-04
1 18866U 25208XZ  26037.47805556  .00000000  00000+0  00000-0 0  9993
2 18866  55.0000 324.0000 0000000   0.0000 234.0000 13.72670174    18
CTC1_L_00351029-01
1 18867U 23831GN  26037.47805556  .00000000  00000+0  00000-0 0  9994
2 18867  55.0000 336.0000 0000000   0.0000 336.0000 13.72670174    15
CTC1_L_00351029-02
1 18868U 23518YX  26037.47805556  .00000000  00000+0  00000-0 0  9997
2 18868  55.0000 336.0000 0000000   0.0000  66.0000 13.72670174    16
CTC1_L_00351029-03
1 18869U 23004RX  26037.47805556  .00000000  00000+0  00000-0 0  9998
2 18869  55.0000 336.0000 0000000   0.0000 156.0000 13.72670174    17
CTC1_L_00351029-04
1 18870U 25805XT  26037.47805556  .00000000  00000+0  00000-0 0  9991
2 18870  55.0000 336.0000 0000000   0.0000 246.0000 13.72670174    19
CTC1_L_00351030-01
1 18871U 22364WG  26037.47805556  .00000000  00000+0  00000-0 0  9999
2 18871  55.0000 348.0000 0000000   0.0000 348.0000 13.72670174    16
CTC1_L_00351030-02
1 18872U 24102TA  26037.47805556  .00000000  00000+0  00000-0 0  9992
2 18872  55.0000 348.0000 0000000   0.0000  78.0000 13.72670174    17
CTC1_L_00351030-03
1 18873U 24961T   26037.47805556  .00000000  00000+0  00000-0 0  9996
2 18873  55.0000 348.0000 0000000   0.0000 168.0000 13.72670174    18
CTC1_L_00351030-04
1 18874U 22167BS  26037.47805556  .00000000  00000+0  00000-0 0  9993
2 18874  55.0000 348.0000 0000000   0.0000 258.0000 13.72670174    19
